NORAD_CAT_ID,OBJECT_NAME,OBJECT_TYPE,EPOCH,MEAN_MOTION,ECCENTRICITY,INCLINATION,RA_OF_ASC_NODE,ARG_OF_PERICENTER,MEAN_ANOMALY,BSTAR,MEAN_MOTION_DOT,MEAN_MOTION_DDOT,TLE_LINE0,TLE_LINE1,TLE_LINE2,SEMIMAJOR_AXIS,PERIOD,APOGEE,PERIGEE,DECAYED
52626.0,STARLINK-3990,PAYLOAD,2023-12-14 04:42:42,15.08835992,0.0001733,53.2186,334.5045,106.7196,253.3986,3.0349e-05,1.95e-06,0.0,0 STARLINK-3990,1 52626U 22052AE  23348.19632667  .00000195  00000-0  30349-4 0  9990,2 52626  53.2186 334.5045 0001733 106.7196 253.3986 15.08835992 88109,6917.893,95.438,540.957,538.559,0.0
52626.0,STARLINK-3990,PAYLOAD,2023-12-15 04:33:29,15.08843316,0.0001673,53.2183,330.0425,101.9622,258.1558,0.00011992,1.621e-05,0.0,0 STARLINK-3990,1 52626U 22052AE  23349.18992097  .00001621  00000-0  11992-3 0  9993,2 52626  53.2183 330.0425 0001673 101.9622 258.1558 15.08843316 88256,6917.87,95.437,540.893,538.578,0.0
52626.0,STARLINK-3990,PAYLOAD,2023-12-15 06:08:52,15.08845753,0.0001743,53.2187,329.748,106.5227,253.5957,0.00014187,1.971e-05,0.0,0 STARLINK-3990,1 52626U 22052AE  23349.25615921  .00001971  00000-0  14187-3 0  9996,2 52626  53.2187 329.7480 0001743 106.5227 253.5957 15.08845753 87883,6917.863,95.437,540.934,538.522,0.0
52626.0,STARLINK-3990,PAYLOAD,2023-12-16 02:48:54,15.08834915,0.0001828,53.2192,325.8798,103.0579,257.0617,1.8445e-05,5e-08,0.0,0 STARLINK-3990,1 52626U 22052AE  23350.11729269  .00000005  00000-0  18445-4 0  9993,2 52626  53.2192 325.8798 0001828 103.0579 257.0617 15.08834915 88391,6917.896,95.438,541.026,538.496,0.0
52626.0,STARLINK-3990,PAYLOAD,2023-12-16 05:59:40,15.0883497,0.0001514,53.2182,325.2868,86.2409,273.8756,2.7807e-05,1.55e-06,0.0,0 STARLINK-3990,1 52626U 22052AE  23350.24977403  .00000155  00000-0  27807-4 0  9990,2 52626  53.2182 325.2868 0001514  86.2409 273.8756 15.08834970 88030,6917.896,95.438,540.808,538.713,0.0
52626.0,STARLINK-3990,PAYLOAD,2023-12-17 02:39:40,15.08844717,0.0001355,53.2183,321.418,93.4534,266.6613,-6.7865e-06,-3.96e-06,0.0,0 STARLINK-3990,1 52626U 22052AE  23351.11088966 -.00000396  00000-0 -67865-5 0  9992,2 52626  53.2183 321.4180 0001355  93.4534 266.6613 15.08844717 88546,6917.866,95.437,540.668,538.794,0.0
52626.0,STARLINK-3990,PAYLOAD,2023-12-17 05:50:26,15.08852174,0.0001409,53.2175,320.8242,83.6884,276.4269,3.0129e-05,1.92e-06,0.0,0 STARLINK-3990,1 52626U 22052AE  23351.24336493  .00000192  00000-0  30129-4 0  9991,2 52626  53.2175 320.8242 0001409  83.6884 276.4269 15.08852174 88562,6917.843,95.437,540.683,538.733,0.0
52626.0,STARLINK-3990,PAYLOAD,2023-12-18 04:05:50,15.08861421,0.0001444,53.2164,316.6648,83.212,276.9036,0.00046851,7.181e-05,0.0,0 STARLINK-3990,1 52626U 22052AE  23352.17071985  .00007181  00000-0  46851-3 0  9999,2 52626  53.2164 316.6648 0001444  83.2120 276.9036 15.08861421 88327,6917.815,95.436,540.679,538.681,0.0
52626.0,STARLINK-3990,PAYLOAD,2023-12-19 02:21:15,15.08837508,0.0001274,53.2165,312.5006,103.395,256.7184,-1.3548e-05,-5.03e-06,0.0,0 STARLINK-3990,1 52626U 22052AE  23353.09809047 -.00000503  00000-0 -13548-4 0  9990,2 52626  53.2165 312.5006 0001274 103.3950 256.7184 15.08837508 88843,6917.888,95.438,540.634,538.872,0.0
52626.0,STARLINK-3990,PAYLOAD,2023-12-20 03:47:25,15.08843126,0.0001713,53.2165,307.7391,121.7094,238.4065,0.00035602,5.383e-05,0.0,0 STARLINK-3990,1 52626U 22052AE  23354.15793171  .00005383  00000-0  35602-3 0  9991,2 52626  53.2165 307.7391 0001713 121.7094 238.4065 15.08843126 89004,6917.871,95.437,540.921,538.551,0.0
52626.0,STARLINK-3990,PAYLOAD,2023-12-21 03:38:11,15.08853996,0.0001444,53.2163,303.2766,111.8412,248.2734,0.00040169,6.113e-05,0.0,0 STARLINK-3990,1 52626U 22052AE  23355.15152662  .00006113  00000-0  40169-3 0  9992,2 52626  53.2163 303.2766 0001444 111.8412 248.2734 15.08853996 88775,6917.838,95.437,540.702,538.704,0.0
52626.0,STARLINK-3990,PAYLOAD,2023-12-22 01:53:36,15.08836262,0.000146,53.2163,299.1149,107.8229,252.2923,-7.1998e-05,-1.434e-05,0.0,0 STARLINK-3990,1 52626U 22052AE  23356.07889347 -.00001434  00000-0 -71998-4 0  9999,2 52626  53.2163 299.1149 0001460 107.8229 252.2923 15.08836262 89292,6917.892,95.438,540.767,538.747,0.0
52626.0,STARLINK-3990,PAYLOAD,2023-12-23 06:30:32,15.08843327,0.0001519,53.217,293.7593,102.5699,257.5463,0.000195,2.817e-05,0.0,0 STARLINK-3990,1 52626U 22052AE  23357.27121472  .00002817  00000-0  19500-3 0  9994,2 52626  53.2170 293.7593 0001519 102.5699 257.5463 15.08843327 89478,6917.87,95.437,540.786,538.684,0.0
52626.0,STARLINK-3990,PAYLOAD,2023-12-24 03:10:34,15.08844614,0.0001673,53.2171,289.8946,77.1136,283.0043,0.00028045,4.179e-05,0.0,0 STARLINK-3990,1 52626U 22052AE  23358.13233869  .00004179  00000-0  28045-3 0  9991,2 52626  53.2171 289.8946 0001673  77.1136 283.0043 15.08844614 89604,6917.866,95.437,540.889,538.574,0.0
52626.0,STARLINK-3990,PAYLOAD,2023-12-24 04:45:56,15.08848361,0.0001563,53.217,289.5974,95.3,264.817,0.00033159,4.994e-05,0.0,0 STARLINK-3990,1 52626U 22052AE  23358.19857599  .00004994  00000-0  33159-3 0  9996,2 52626  53.2170 289.5974 0001563  95.3000 264.8170 15.08848361 89231,6917.855,95.437,540.801,538.639,0.0
52626.0,STARLINK-3990,PAYLOAD,2023-12-25 04:36:43,15.08850448,0.0001564,53.2176,285.1369,98.7515,261.3654,0.0002459,3.629e-05,0.0,0 STARLINK-3990,1 52626U 22052AE  23359.19217330  .00003629  00000-0  24590-3 0  9993,2 52626  53.2176 285.1369 0001564  98.7515 261.3654 15.08850448 89762,6917.848,95.437,540.795,538.632,0.0
52626.0,STARLINK-3990,PAYLOAD,2023-12-25 18:55:12,15.08831011,0.0001368,53.2188,282.4627,92.5059,267.609,-5.7972e-05,-1.21e-05,0.0,0 STARLINK-3990,1 52626U 22052AE  23359.78834394 -.00001210  00000-0 -57972-4 0  9990,2 52626  53.2188 282.4627 0001368  92.5059 267.6090 15.08831011 89857,6917.908,95.438,540.719,538.826,0.0
52626.0,STARLINK-3990,PAYLOAD,2023-12-26 01:16:45,15.08839842,0.0001479,53.216,281.2763,83.9593,276.1568,5.4083e-05,5.73e-06,0.0,0 STARLINK-3990,1 52626U 22052AE  23360.05330062  .00000573  00000-0  54083-4 0  9994,2 52626  53.2160 281.2763 0001479  83.9593 276.1568 15.08839842 89894,6917.881,95.438,540.769,538.723,0.0
52626.0,STARLINK-3990,PAYLOAD,2023-12-26 04:27:31,15.08844819,0.0001513,53.2163,280.6792,101.9752,258.141,0.00017244,2.458e-05,0.0,0 STARLINK-3990,1 52626U 22052AE  23360.18577821  .00002458  00000-0  17244-3 0  9995,2 52626  53.2163 280.6792 0001513 101.9752 258.1410 15.08844819 89536,6917.866,95.437,540.777,538.684,0.0
52626.0,STARLINK-3990,PAYLOAD,2023-12-27 01:07:32,15.08849656,0.0001537,53.2165,276.8146,88.1515,271.9653,0.00027727,4.129e-05,0.0,0 STARLINK-3990,1 52626U 22052AE  23361.04689842  .00004129  00000-0  27727-3 0  9992,2 52626  53.2165 276.8146 0001537  88.1515 271.9653 15.08849656 89667,6917.851,95.437,540.779,538.653,0.0
52626.0,STARLINK-3990,PAYLOAD,2023-12-27 18:36:46,15.08842929,0.0001564,53.2165,273.5415,103.5664,256.5503,0.00013684,1.891e-05,0.0,0 STARLINK-3990,1 52626U 22052AE  23361.77554201  .00001891  00000-0  13684-3 0  9992,2 52626  53.2165 273.5415 0001564 103.5664 256.5503 15.08842929 90152,6917.871,95.437,540.818,538.654,0.0
52626.0,STARLINK-3990,PAYLOAD,2023-12-27 21:47:33,15.08843706,0.0001521,53.2164,272.9472,105.5265,254.5895,0.00012967,1.777e-05,0.0,0 STARLINK-3990,1 52626U 22052AE  23361.90802097  .00001777  00000-0  12967-3 0  9992,2 52626  53.2164 272.9472 0001521 105.5265 254.5895 15.08843706 89793,6917.869,95.437,540.786,538.682,0.0
52626.0,STARLINK-3990,PAYLOAD,2023-12-28 04:09:05,15.08844567,0.0001466,53.2166,271.758,102.6514,257.4642,0.0001238,1.683e-05,0.0,0 STARLINK-3990,1 52626U 22052AE  23362.17298052  .00001683  00000-0  12380-3 0  9997,2 52626  53.2166 271.7580 0001466 102.6514 257.4642 15.08844567 89838,6917.866,95.437,540.746,538.717,0.0
52626.0,STARLINK-3990,PAYLOAD,2023-12-28 21:38:20,15.08839445,0.0001501,53.2166,268.4867,110.5946,249.5208,-4.7925e-05,-1.051e-05,0.0,0 STARLINK-3990,1 52626U 22052AE  23362.90162291 -.00001051  00000-0 -47925-4 0  9998,2 52626  53.2166 268.4867 0001501 110.5946 249.5208 15.08839445 89947,6917.882,95.438,540.785,538.709,0.0
52626.0,STARLINK-3990,PAYLOAD,2023-12-29 00:49:06,15.08842818,0.0001531,53.2169,267.8903,110.6196,249.496,-1.1937e-05,-4.78e-06,0.0,0 STARLINK-3990,1 52626U 22052AE  23363.03409974 -.00000478  00000-0 -11937-4 0  9991,2 52626  53.2169 267.8903 0001531 110.6196 249.4960 15.08842818 90343,6917.872,95.437,540.796,538.678,0.0
52626.0,STARLINK-3990,PAYLOAD,2023-12-29 21:29:07,15.08839425,0.0001373,53.2161,264.0252,102.5216,257.593,3.8983e-05,3.33e-06,0.0,0 STARLINK-3990,1 52626U 22052AE  23363.89522365  .00000333  00000-0  38983-4 0  9993,2 52626  53.2161 264.0252 0001373 102.5216 257.5930 15.08839425 90097,6917.882,95.438,540.697,538.797,0.0
52626.0,STARLINK-3990,PAYLOAD,2023-12-29 23:04:30,15.08839797,0.0001341,53.2164,263.7296,100.9858,259.1285,4.4168e-05,4.15e-06,0.0,0 STARLINK-3990,1 52626U 22052AE  23363.96146352  .00000415  00000-0  44168-4 0  9992,2 52626  53.2164 263.7296 0001341 100.9858 259.1285 15.08839797 90489,6917.881,95.438,540.674,538.818,0.0
52626.0,STARLINK-3990,PAYLOAD,2023-12-30 18:09:08,15.08828497,0.000122,53.2153,260.1637,89.5485,270.5647,1.2995e-05,-8.1e-07,0.0,0 STARLINK-3990,1 52626U 22052AE  23364.75635317 -.00000081  00000-0  12995-4 0  9997,2 52626  53.2153 260.1637 0001220  89.5485 270.5647 15.08828497 90609,6917.916,95.438,540.625,538.937,0.0
52626.0,STARLINK-3990,PAYLOAD,2023-12-30 22:55:18,15.08826096,0.0001222,53.2159,259.2697,88.5846,271.5286,5.5119e-05,5.89e-06,0.0,0 STARLINK-3990,1 52626U 22052AE  23364.95507855  .00000589  00000-0  55119-4 0  9991,2 52626  53.2159 259.2697 0001222  88.5846 271.5286 15.08826096 90256,6917.923,95.438,540.633,538.943,0.0
52626.0,STARLINK-3990,PAYLOAD,2023-12-31 02:06:05,15.08816018,0.000139,53.2164,258.6754,96.2317,263.8834,0.00023795,3.499e-05,0.0,0 STARLINK-3990,1 52626U 22052AE  23365.08756013  .00003499  00000-0  23795-3 0  9995,2 52626  53.2164 258.6754 0001390  96.2317 263.8834 15.08816018 90654,6917.954,95.439,540.78,538.857,0.0
